OBJECT_NAME,OBJECT_ID,EPOCH,MEAN_MOTION,ECCENTRICITY,INCLINATION,RA_OF_ASC_NODE,ARG_OF_PERICENTER,MEAN_ANOMALY,EPHEMERIS_TYPE,CLASSIFICATION_TYPE,NORAD_CAT_ID,ELEMENT_SET_NO,REV_AT_EPOCH,BSTAR,MEAN_MOTION_DOT,MEAN_MOTION_DDOT
DUBAISAT-1,2009-041B,2026-07-05T08:03:22.186944,14.75156554,.0010698,98.0074,319.3968,20.1727,339.9903,0,U,35682,999,90777,.18869E-3,.1224E-4,0
OCEANSAT-2,2009-051A,2026-07-05T13:42:53.241984,13.99658169,.00166878,98.2318,171.5877,181.4669,178.6452,0,U,35931,999,88190,-.11572001E-3,-.207E-5,0
WORLDVIEW-2 (WV-2),2009-055A,2026-07-05T09:29:15.284256,14.37905255,.0004848,98.4760,259.5965,154.2669,205.8760,0,U,35946,999,87826,.76319E-4,.187E-5,0
SMOS,2009-059A,2026-07-05T11:12:12.703680,14.39783269,.0001301,98.4427,13.5340,87.0614,273.0723,0,U,36036,999,87608,.12501E-3,.348E-5,0
YAOGAN-7,2009-069A,2026-07-05T05:34:15.193920,14.78029623,.0024218,98.0048,71.9860,344.4635,15.5829,0,U,36110,999,89229,.10575E-3,.714E-5,0
TANDEM-X,2010-030A,2026-07-05T12:04:28.704000,15.19152794,.00017926,97.4456,193.9495,97.5745,262.5693,0,U,36605,999,88942,.26698925E-4,.494E-5,0
CARTOSAT-2B,2010-035A,2026-07-05T14:39:23.082912,14.78608671,.00122417,97.9937,237.0425,126.8528,233.3808,0,U,36795,999,86257,.10405956E-3,.71E-5,0
YAOGAN-10,2010-038A,2026-07-05T14:58:21.898848,14.85410212,.00015707,97.8965,209.8813,84.8718,67.0672,0,U,36834,999,85994,.4220318E-3,.3582E-4,0
COSMO-SKYMED 4,2010-060A,2026-07-05T16:07:04.835136,14.82162322,.00014842,97.8891,10.0031,86.4517,273.6866,0,U,37216,999,84730,.13227924E-3,.1001E-4,0
RESOURCESAT-2,2011-015A,2026-07-05T09:19:30.955872,14.21604661,.0011006,98.7636,253.7040,199.1708,160.9057,0,U,37387,999,78876,.83183E-4,.138E-5,0
HAIYANG-2A,2011-043A,2026-07-05T14:32:15.451296,13.73781198,.00041566,99.3397,188.8657,55.8659,304.2884,0,U,37781,999,74918,.16286881E-3,.109E-5,0
RASAT,2011-044D,2026-07-05T14:07:21.179712,14.68187707,.00215404,98.0579,277.7051,131.3950,341.6801,0,U,37791,999,79588,.22393813E-3,.1244E-4,0
SRMSAT,2011-058D,2026-07-05T14:40:37.340256,14.11579637,.00118628,19.9728,307.9551,46.8223,73.4725,0,U,37841,999,76042,.75654927E-4,.404E-5,0
PLEIADES 1A,2011-076F,2026-07-05T16:00:29.733984,14.58543896,.00017715,98.1969,261.5216,84.8047,75.4487,0,U,38012,999,77468,.13983832E-3,.604E-5,0
ZIYUAN 1-02C (ZY 1-02C),2011-079A,2026-07-05T16:02:18.714624,14.38231642,.00051632,98.4060,253.5904,248.8804,262.8939,0,U,38038,999,76186,.29800031E-3,.863E-5,0
ARIRANG-3 (KOMPSAT-3),2012-025B,2026-07-05T13:51:18.600768,14.62223079,.0006675,98.1179,143.7208,63.5647,296.6238,0,U,38338,999,75403,.10397851E-3,.477E-5,0
EXACTVIEW-1 (ADS-1B),2012-039C,2026-07-05T06:52:08.476608,14.24990300,.0011864,98.9797,304.0869,117.4533,242.7854,0,U,38709,999,72528,.90688E-4,.166E-5,0
SPOT 6,2012-047A,2026-07-05T15:38:37.264416,14.58536417,.00012015,98.2107,253.7444,76.8411,283.2922,0,U,38755,999,73574,.20663472E-3,.914E-5,0
PLEIADES 1B,2012-068A,2026-07-05T14:26:39.864192,14.58574154,.00016783,98.1939,261.4002,81.7729,278.3660,0,U,39019,999,72353,.19035896E-3,.84E-5,0
GOKTURK 2,2012-073A,2026-07-05T14:14:50.247168,14.75563366,.00009566,97.6811,23.1014,70.2083,289.9230,0,U,39030,999,72722,.14213727E-3,.921E-5,0
LANDSAT 8,2013-008A,2026-07-05T08:37:52.747392,14.57107787,.0001354,98.2294,256.2785,93.9663,266.1690,0,U,39084,999,70054,.1134E-3,.465E-5,0
SARAL,2013-009A,2026-07-05T11:25:36.624576,14.32893598,.0001086,98.5554,12.8120,195.8191,164.2959,0,U,39086,999,69822,-.12981E-5,-.47E-6,0
GAOFEN-1,2013-018A,2026-07-05T15:09:03.721248,14.76513332,.0016215,97.9085,258.3244,202.5183,157.5317,0,U,39150,999,71096,.21162755E-3,.1427E-4,0
VNREDSAT 1,2013-021B,2026-07-05T14:24:10.069920,14.64878938,.00016968,97.9064,239.3094,81.6263,278.5133,0,U,39160,999,70298,.23396723E-3,.1205E-4,0
ARIRANG-5 (KOMPSAT-5),2013-042A,2026-07-05T14:07:59.642400,15.04555728,.00053353,97.6211,13.0295,78.4190,281.7635,0,U,39227,999,70662,.16042627E-3,.2189E-4,0
SKYSAT-A,2013-066C,2026-07-05T02:43:48.838944,15.13077671,.0019751,97.3796,234.9399,250.3908,109.5192,0,U,39418,999,69119,.24293E-3,.4253E-4,0
DUBAISAT-2,2013-066D,2026-07-05T14:56:24.831168,15.10327575,.00102046,97.4579,176.2849,340.4425,19.6412,0,U,39419,999,68917,.24743721E-3,.3998E-4,0
GPM-CORE,2014-009C,2026-07-05T08:04:46.253280,15.44964522,.0011193,64.9704,247.3265,258.7739,101.2144,0,U,39574,999,70061,.31581E-3,.14766E-3,0
SENTINEL-1A,2014-016A,2026-07-05T14:34:46.355808,14.59199489,.00013681,98.1779,193.8713,85.1479,274.9877,0,U,39634,999,65270,-.14999624E-4,-.116E-5,0
KAZEOSAT 1,2014-024A,2026-07-05T14:48:10.591200,14.42035594,.00013179,98.3196,258.6060,80.7374,279.3965,0,U,39731,999,64121,.14697591E-3,.44E-5,0
